58195,STARLINK-30827,2025-12-13T04:29:33.653184,2025-12-14T13:04:14.456627,43.0029,255.916,0.000107,271.9555,88.1165,15.02534098,21616-3,11794,1 58195U 23167W   25347.18719506  .00002717  00000+0  21616-3 0  9990,2 58195  43.0029 255.9160 0001070 271.9555  88.1165 15.02534098117946
58196,STARLINK-30798,2025-12-13T03:56:11.143104,2025-12-14T13:04:14.456627,43.0013,256.5939,0.0001173,265.7175,94.3534,15.02535759,20282-3,11793,1 58196U 23167X   25347.16401786  .00002537  00000+0  20282-3 0  9995,2 58196  43.0013 256.5939 0001173 265.7175  94.3534 15.02535759117937
58197,STARLINK-30762,2025-12-13T17:20:11.331168,2025-12-14T13:04:14.456627,43.0027,253.0419,0.0001066,268.0347,92.0373,15.02548005,44693-3,11802,1 58197U 23167Y   25347.72235337  .00005841  00000+0  44693-3 0  9998,2 58197  43.0027 253.0419 0001066 268.0347  92.0373 15.02548005118021
58206,STARLINK-30800,2025-12-13T21:55:47.988768,2025-12-14T13:04:14.456627,43.0043,302.2524,0.0001103,265.9283,94.1433,15.02537724,21318-3,11737,1 58206U 23170A   25347.91374987  .00002677  00000+0  21318-3 0  9992,2 58206  43.0043 302.2524 0001103 265.9283  94.1433 15.02537724117374
58207,STARLINK-30845,2025-12-13T14:40:09.023520,2025-12-14T13:04:14.456627,43.0022,303.4393,0.0001041,277.8663,82.2062,15.02532088,-35759-4,11733,1 58207U 23170B   25347.61121555 -.00000686  00000+0 -35759-4 0  9996,2 58207  43.0022 303.4393 0001041 277.8663  82.2062 15.02532088117334
58208,STARLINK-30841,2025-12-13T14:11:30.776352,2025-12-14T13:04:14.456627,43.0048,304.1197,0.0001236,247.1233,112.9479,15.026026,-84714-3,11732,1 58208U 23170C   25347.59132843 -.00011648  00000+0 -84714-3 0  9990,2 58208  43.0048 304.1197 0001236 247.1233 112.9479 15.02602600117322
58209,STARLINK-30839,2025-12-13T21:41:26.841696,2025-12-14T13:04:14.456627,43.006,302.1767,0.0001308,267.952,92.1173,15.02534626,-21373-3,11737,1 58209U 23170D   25347.90378289 -.00003089  00000+0 -21373-3 0  9994,2 58209  43.0060 302.1767 0001308 267.9520  92.1173 15.02534626117374
58210,STARLINK-30846,2025-12-13T13:47:34.268352,2025-12-14T13:04:14.456627,43.003,304.01,8.91e-05,289.5807,70.4939,15.02534284,-58699-4,11732,1 58210U 23170E   25347.57470218 -.00000996  00000+0 -58699-4 0  9990,2 58210  43.0030 304.0100 0000891 289.5807  70.4939 15.02534284117323
58211,STARLINK-30838,2025-12-13T05:34:32.981952,2025-12-14T13:04:14.456627,43.0034,305.7428,0.0001332,276.5584,83.5107,15.02535344,43432-3,11727,1 58211U 23170F   25347.23232618  .00005668  00000+0  43432-3 0  9991,2 58211  43.0034 305.7428 0001332 276.5584  83.5107 15.02535344117272
58212,STARLINK-30837,2025-12-13T13:52:21.659808,2025-12-14T13:04:14.456627,43.0039,304.0161,0.0001062,277.7716,82.3006,15.02533977,-30801-4,11732,1 58212U 23170G   25347.57802847 -.00000620  00000+0 -30801-4 0  9998,2 58212  43.0039 304.0161 0001062 277.7716  82.3006 15.02533977117325
58213,STARLINK-30813,2025-12-13T07:05:28.781664,2025-12-14T13:04:14.456627,43.0042,305.3555,0.0001325,271.7781,88.291,15.02540738,19388-3,11728,1 58213U 23170H   25347.29547201  .00002417  00000+0  19388-3 0  9998,2 58213  43.0042 305.3555 0001325 271.7781  88.2910 15.02540738117286
58214,STARLINK-30805,2025-12-13T03:49:14.012544,2025-12-14T13:04:14.456627,43.0035,306.0522,0.0001017,266.7624,93.3102,15.0253622,74070-4,11726,1 58214U 23170J   25347.15918996  .00000797  00000+0  74070-4 0  9996,2 58214  43.0035 306.0522 0001017 266.7624  93.3102 15.02536220117268
58215,STARLINK-30851,2025-12-12T14:58:35.882688,2025-12-14T13:04:14.456627,43.0,308.9186,9.03e-05,289.0973,70.9771,15.02538136,88556-4,11718,1 58215U 23170K   25346.62402642  .00000993  00000+0  88556-4 0  9996,2 58215  43.0000 308.9186 0000903 289.0973  70.9771 15.02538136117188
58217,STARLINK-30818,2025-12-13T14:44:55.496544,2025-12-14T13:04:14.456627,43.0064,303.4488,0.0001958,268.4663,91.5955,15.02553349,13879-3,11733,1 58217U 23170M   25347.61453121  .00001672  00000+0  13879-3 0  9996,2 58217  43.0064 303.4488 0001958 268.4663  91.5955 15.02553349117336
58218,STARLINK-30794,2025-12-13T13:37:58.714752,2025-12-14T13:04:14.456627,43.0037,303.9417,0.0001169,266.1782,93.8926,15.02551496,51282-3,11732,1 58218U 23170N   25347.56804068  .00006733  00000+0  51282-3 0  9994,2 58218  43.0037 303.9417 0001169 266.1782  93.8926 15.02551496117328
58219,STARLINK-30835,2025-12-13T14:35:20.618592,2025-12-14T13:04:14.456627,42.9998,303.4005,0.0001851,273.7243,86.3388,15.02534665,-20854-4,11733,1 58219U 23170P   25347.60787753 -.00000485  00000+0 -20854-4 0  9993,2 58219  42.9998 303.4005 0001851 273.7243  86.3388 15.02534665117334
58220,STARLINK-30792,2025-12-13T14:30:09.649440,2025-12-14T13:04:14.456627,43.0034,303.3707,0.0001109,268.4448,91.6268,15.02708184,10955-2,11733,1 58220U 23170Q   25347.60427835  .00014694  00000+0  10955-2 0  9991,2 58220  43.0034 303.3707 0001109 268.4448  91.6268 15.02708184117336
58221,STARLINK-30836,2025-12-13T14:25:45.379488,2025-12-14T13:04:14.456627,43.0048,303.3474,0.0001111,273.6878,86.3838,15.02546268,-20973-3,11733,1 58221U 23170R   25347.60121967 -.00003036  00000+0 -20973-3 0  9991,2 58221  43.0048 303.3474 0001111 273.6878  86.3838 15.02546268117338
58222,STARLINK-30855,2025-12-13T20:29:38.946336,2025-12-14T13:04:14.456627,43.0034,302.6429,0.0001361,267.1972,92.8715,15.02536257,25383-3,11736,1 58222U 23170S   25347.85392299  .00003227  00000+0  25383-3 0  9997,2 58222  43.0034 302.6429 0001361 267.1972  92.8715 15.02536257117362
58223,STARLINK-30840,2025-12-13T14:01:57.004320,2025-12-14T13:04:14.456627,43.0037,304.0644,9.02e-05,274.9281,85.1458,15.02535559,-38903-4,11732,1 58223U 23170T   25347.58468755 -.00000729  00000+0 -38903-4 0  9998,2 58223  43.0037 304.0644 0000902 274.9281  85.1458 15.02535559117329
58224,STARLINK-30875,2025-12-13T14:49:43.116096,2025-12-14T13:04:14.456627,43.0045,303.4584,0.0001208,264.7406,95.3298,15.02544971,12133-3,11733,1 58224U 23170U   25347.61786014  .00001436  00000+0  12133-3 0  9994,2 58224  43.0045 303.4584 0001208 264.7406  95.3298 15.02544971117335
58225,STARLINK-30872,2025-12-13T13:05:28.849920,2025-12-14T13:04:14.456627,43.0016,178.8011,0.000182,265.6858,94.3785,15.27577069,52100-5,11879,1 58225U 23170V   25347.54547280 -.00000119  00000+0  52100-5 0  9995,2 58225  43.0016 178.8011 0001820 265.6858  94.3785 15.27577069118796
58226,STARLINK-30865,2025-12-13T21:29:37.905504,2025-12-14T13:04:14.456627,43.0039,291.0671,9.96e-05,292.3126,67.7611,15.02487218,-38423-3,11750,1 58226U 23170W   25347.89557761 -.00005383  00000+0 -38423-3 0  9998,2 58226  43.0039 291.0671 0000996 292.3126  67.7611 15.02487218117509
58227,STARLINK-30874,2025-12-13T22:19:45.419520,2025-12-14T13:04:14.456627,43.0071,302.3606,7.99e-05,284.8021,75.2732,15.02542246,21680-3,11737,1 58227U 23170X   25347.93038680  .00002727  00000+0  21680-3 0  9992,2 58227  43.0071 302.3606 0000799 284.8021  75.2732 15.02542246117377
58228,STARLINK-30871,2025-12-13T06:17:42.288000,2025-12-14T13:04:14.456627,42.9991,305.9477,0.0001288,268.3042,91.7653,15.02534828,23090-3,11727,1 58228U 23170Y   25347.26229500  .00002917  00000+0  23090-3 0  9990,2 58228  42.9991 305.9477 0001288 268.3042  91.7653 15.02534828117277
58230,STARLINK-30861,2025-12-13T20:36:25.096320,2025-12-14T13:04:14.456627,43.0069,32.4393,9.02e-05,295.7479,64.327,15.02484928,14466-2,11681,1 58230U 23171A   25347.85862380  .00019365  00000+0  14466-2 0  9999,2 58230  43.0069  32.4393 0000902 295.7479  64.3270 15.02484928116812
58231,STARLINK-30867,2025-12-13T20:41:12.342624,2025-12-14T13:04:14.456627,42.9974,32.4556,0.0001174,136.7092,223.3843,15.02531193,51218-4,11681,1 58231U 23171B   25347.86194841  .00000488  00000+0  51218-4 0  9995,2 58231  42.9974  32.4556 0001174 136.7092 223.3843 15.02531193116814
58232,STARLINK-30880,2025-12-13T09:35:53.842272,2025-12-14T13:04:14.456627,43.0038,35.0138,0.0001459,263.6885,96.3791,15.02534163,46416-4,11674,1 58232U 23171C   25347.39992873  .00000423  00000+0  46416-4 0  9998,2 58232  43.0038  35.0138 0001459 263.6885  96.3791 15.02534163116741
58233,STARLINK-30777,2025-12-13T12:56:55.484448,2025-12-14T13:04:14.456627,43.0052,34.3381,0.0001767,279.7254,80.3389,15.02553346,-56846-4,11676,1 58233U 23171D   25347.53953107 -.00000972  00000+0 -56846-4 0  9991,2 58233  43.0052  34.3381 0001767 279.7254  80.3389 15.02553346116762
58234,STARLINK-30860,2025-12-13T09:40:40.731744,2025-12-14T13:04:14.456627,43.0015,35.0354,6.4e-05,272.5038,87.5731,15.02544261,10323-3,11674,1 58234U 23171E   25347.40324921  .00001191  00000+0  10323-3 0  9995,2 58234  43.0015  35.0354 0000640 272.5038  87.5731 15.02544261116744
58236,STARLINK-30853,2025-12-13T09:50:16.940256,2025-12-14T13:04:14.456627,43.0075,35.0861,0.0001803,267.2736,92.79,15.02533935,73956-4,11674,1 58236U 23171G   25347.40991829  .00000795  00000+0  73956-4 0  9995,2 58236  43.0075  35.0861 0001803 267.2736  92.7900 15.02533935116745
58237,STARLINK-30866,2025-12-13T20:17:14.389152,2025-12-14T13:04:14.456627,43.0042,32.3286,0.000183,279.2348,80.8288,15.02522186,-12728-4,11681,1 58237U 23171H   25347.84530543 -.00000376  00000+0 -12728-4 0  9993,2 58237  43.0042  32.3286 0001830 279.2348  80.8288 15.02522186116814
58238,STARLINK-30817,2025-12-13T19:29:26.221920,2025-12-14T13:04:14.456627,43.0068,32.9352,0.000192,274.935,85.1273,15.02538719,-55334-3,11680,1 58238U 23171J   25347.81210905 -.00007671  00000+0 -55334-3 0  9992,2 58238  43.0068  32.9352 0001920 274.9350  85.1273 15.02538719116808
58239,STARLINK-30847,2025-12-13T19:34:11.111232,2025-12-14T13:04:14.456627,43.0061,32.9668,0.0002717,278.1435,81.91,15.02607265,17912-2,11680,1 58239U 23171K   25347.81540638  .00024122  00000+0  17912-2 0  9999,2 58239  43.0061  32.9668 0002717 278.1435  81.9100 15.02607265116803
58240,STARLINK-30848,2025-12-13T19:55:23.138688,2025-12-14T13:04:14.456627,43.0058,33.9067,7.78e-05,280.0165,80.0589,15.02515894,-85775-4,11679,1 58240U 23171L   25347.83012892 -.00001361  00000+0 -85775-4 0  9995,2 58240  43.0058  33.9067 0000778 280.0165  80.0589 15.02515894116797
